{
  "type": "FeatureCollection",
  "features": [
    {
      "type": "Feature",
      "properties": {
        "norad_id": 40069,
        "name": "METEOR-M 2",
        "group": "weather",
        "lat": -29.32077987935915,
        "lon": -22.534096194004903,
        "alt_km": 829.8200835166299,
        "timestamp": "2025-12-21T09:37:22.291140+00:00",
        "meta_object_name": "METEOR-M 2",
        "meta_object_id": "2014-037A",
        "meta_epoch": "2025-12-21T04:41:38.347872",
        "meta_mean_motion": 14.21390734,
        "meta_eccentricity": 0.0005412,
        "meta_inclination": 98.4903,
        "meta_ra_of_asc_node": 332.4559,
        "meta_arg_of_pericenter": 182.8041,
        "meta_mean_anomaly": 177.3107,
        "meta_ephemeris_type": 0,
        "meta_classification_type": "U",
        "meta_norad_cat_id": 40069,
        "meta_element_set_no": 999,
        "meta_rev_at_epoch": 59403,
        "meta_bstar": 0.0002059,
        "meta_mean_motion_dot": 4.08e-06,
        "meta_mean_motion_ddot": 0,
        "tle_line1": "1 40069U 14037A   25355.19558273  .00000408  00000+0  20590-3 0  9994",
        "tle_line2": "2 40069  98.4903 332.4559 0005412 182.8041 177.3107 14.21390734594032"
      },
      "geometry": {
        "type": "Point",
        "coordinates": [
          -22.534096194004903,
          -29.32077987935915
        ]
      }
    },
    {
      "type": "Feature",
      "properties": {
        "norad_id": 40267,
        "name": "HIMAWARI-8",
        "group": "weather",
        "lat": -0.011466015264309943,
        "lon": 15.230702616660743,
        "alt_km": 35785.72989615532,
        "timestamp": "2025-12-21T09:37:22.291152+00:00",
        "meta_object_name": "HIMAWARI-8",
        "meta_object_id": "2014-060A",
        "meta_epoch": "2025-12-20T22:27:36.487872",
        "meta_mean_motion": 1.00270857,
        "meta_eccentricity": 8.75e-05,
        "meta_inclination": 0.0398,
        "meta_ra_of_asc_node": 138.0355,
        "meta_arg_of_pericenter": 157.775,
        "meta_mean_anomaly": 271.5211,
        "meta_ephemeris_type": 0,
        "meta_classification_type": "U",
        "meta_norad_cat_id": 40267,
        "meta_element_set_no": 999,
        "meta_rev_at_epoch": 4097,
        "meta_bstar": 0,
        "meta_mean_motion_dot": -2.52e-06,
        "meta_mean_motion_ddot": 0,
        "tle_line1": "1 40267U 14060A   25354.93583898 -.00000252  00000+0  00000+0 0  9990",
        "tle_line2": "2 40267   0.0398 138.0355 0000875 157.7750 271.5211  1.00270857 40977"
      },
      "geometry": {
        "type": "Point",
        "coordinates": [
          15.230702616660743,
          -0.011466015264309943
        ]
      }
    },
    {
      "type": "Feature",
      "properties": {
        "norad_id": 40367,
        "name": "FENGYUN 2G",
        "group": "weather",
        "lat": -5.106375415876106,
        "lon": -26.212157780886354,
        "alt_km": 35783.33576565418,
        "timestamp": "2025-12-21T09:37:22.291164+00:00",
        "meta_object_name": "FENGYUN 2G",
        "meta_object_id": "2014-090A",
        "meta_epoch": "2025-12-21T01:41:07.810656",
        "meta_mean_motion": 1.00261103,
        "meta_eccentricity": 0.0002661,
        "meta_inclination": 5.188,
        "meta_ra_of_asc_node": 75.0029,
        "meta_arg_of_pericenter": 203.8012,
        "meta_mean_anomaly": 295.6309,
        "meta_ephemeris_type": 0,
        "meta_classification_type": "U",
        "meta_norad_cat_id": 40367,
        "meta_element_set_no": 999,
        "meta_rev_at_epoch": 4021,
        "meta_bstar": 0,
        "meta_mean_motion_dot": -2.79e-06,
        "meta_mean_motion_ddot": 0,
        "tle_line1": "1 40367U 14090A   25355.07022929 -.00000279  00000+0  00000+0 0  9992",
        "tle_line2": "2 40367   5.1880  75.0029 0002661 203.8012 295.6309  1.00261103 40213"
      },
      "geometry": {
        "type": "Point",
        "coordinates": [
          -26.212157780886354,
          -5.106375415876106
        ]
      }
    },
    {
      "type": "Feature",
      "properties": {
        "norad_id": 40732,
        "name": "METEOSAT-11 (MSG-4)",
        "group": "weather",
        "lat": 0.3719308838495407,
        "lon": -116.2308990702486,
        "alt_km": 35783.666510805466,
        "timestamp": "2025-12-21T09:37:22.291176+00:00",
        "meta_object_name": "METEOSAT-11 (MSG-4)",
        "meta_object_id": "2015-034A",
        "meta_epoch": "2025-12-21T02:58:07.934016",
        "meta_mean_motion": 1.00270116,
        "meta_eccentricity": 8.18e-05,
        "meta_inclination": 2.7571,
        "meta_ra_of_asc_node": 71.9801,
        "meta_arg_of_pericenter": 136.5122,
        "meta_mean_anomaly": 295.1851,
        "meta_ephemeris_type": 0,
        "meta_classification_type": "U",
        "meta_norad_cat_id": 40732,
        "meta_element_set_no": 999,
        "meta_rev_at_epoch": 543,
        "meta_bstar": 0,
        "meta_mean_motion_dot": 8.2e-07,
        "meta_mean_motion_ddot": 0,
        "tle_line1": "1 40732U 15034A   25355.12370294  .00000082  00000+0  00000+0 0  9995",
        "tle_line2": "2 40732   2.7571  71.9801 0000818 136.5122 295.1851  1.00270116  5434"
      },
      "geometry": {
        "type": "Point",
        "coordinates": [
          -116.2308990702486,
          0.3719308838495407
        ]
      }
    },
    {
      "type": "Feature",
      "properties": {
        "norad_id": 41105,
        "name": "ELEKTRO-L 2",
        "group": "weather",
        "lat": 3.356181702815726,
        "lon": -139.79045954438843,
        "alt_km": 35778.32151704111,
        "timestamp": "2025-12-21T09:37:22.291188+00:00",
        "meta_object_name": "ELEKTRO-L 2",
        "meta_object_id": "2015-074A",
        "meta_epoch": "2025-12-21T01:08:40.917984",
        "meta_mean_motion": 1.00272505,
        "meta_eccentricity": 0.000351,
        "meta_inclination": 6.2453,
        "meta_ra_of_asc_node": 72.7296,
        "meta_arg_of_pericenter": 208.7625,
        "meta_mean_anomaly": 171.0759,
        "meta_ephemeris_type": 0,
        "meta_classification_type": "U",
        "meta_norad_cat_id": 41105,
        "meta_element_set_no": 999,
        "meta_rev_at_epoch": 3672,
        "meta_bstar": 0,
        "meta_mean_motion_dot": -9.8e-07,
        "meta_mean_motion_ddot": 0,
        "tle_line1": "1 41105U 15074A   25355.04769581 -.00000098  00000+0  00000+0 0  9994",
        "tle_line2": "2 41105   6.2453  72.7296 0003510 208.7625 171.0759  1.00272505 36725"
      },
      "geometry": {
        "type": "Point",
        "coordinates": [
          -139.79045954438843,
          3.356181702815726
        ]
      }
    },
    {
      "type": "Feature",
      "properties": {
        "norad_id": 41752,
        "name": "INSAT-3DR",
        "group": "weather",
        "lat": -0.09447854726424758,
        "lon": -51.35772057990812,
        "alt_km": 35738.25604863094,
        "timestamp": "2025-12-21T09:37:22.291200+00:00",
        "meta_object_name": "INSAT-3DR",
        "meta_object_id": "2016-054A",
        "meta_epoch": "2025-12-20T23:51:13.480128",
        "meta_mean_motion": 1.00271576,
        "meta_eccentricity": 0.0014141,
        "meta_inclination": 0.1118,
        "meta_ra_of_asc_node": 86.3316,
        "meta_arg_of_pericenter": 185.3117,
        "meta_mean_anomaly": 249.9717,
        "meta_ephemeris_type": 0,
        "meta_classification_type": "U",
        "meta_norad_cat_id": 41752,
        "meta_element_set_no": 999,
        "meta_rev_at_epoch": 3403,
        "meta_bstar": 0,
        "meta_mean_motion_dot": -5.4e-07,
        "meta_mean_motion_ddot": 0,
        "tle_line1": "1 41752U 16054A   25354.99390602 -.00000054  00000+0  00000+0 0  9990",
        "tle_line2": "2 41752   0.1118  86.3316 0014141 185.3117 249.9717  1.00271576 34034"
      },
      "geometry": {
        "type": "Point",
        "coordinates": [
          -51.35772057990812,
          -0.09447854726424758
        ]
      }
    },
    {
      "type": "Feature",
      "properties": {
        "norad_id": 41836,
        "name": "HIMAWARI-9",
        "group": "weather",
        "lat": 0.007076612690926341,
        "lon": 15.334143772479898,
        "alt_km": 35780.981956501906,
        "timestamp": "2025-12-21T09:37:22.291212+00:00",
        "meta_object_name": "HIMAWARI-9",
        "meta_object_id": "2016-064A",
        "meta_epoch": "2025-12-20T22:27:36.487872",
        "meta_mean_motion": 1.00274149,
        "meta_eccentricity": 0.0001516,
        "meta_inclination": 0.0171,
        "meta_ra_of_asc_node": 9.6448,
        "meta_arg_of_pericenter": 320.6837,
        "meta_mean_anomaly": 237.0987,
        "meta_ephemeris_type": 0,
        "meta_classification_type": "U",
        "meta_norad_cat_id": 41836,
        "meta_element_set_no": 999,
        "meta_rev_at_epoch": 3342,
        "meta_bstar": 0,
        "meta_mean_motion_dot": 0,
        "meta_mean_motion_ddot": 0,
        "tle_line1": "1 41836U 16064A   25354.93583898  .00000000  00000+0  00000+0 0  9999",
        "tle_line2": "2 41836   0.0171   9.6448 0001516 320.6837 237.0987  1.00274149 33422"
      },
      "geometry": {
        "type": "Point",
        "coordinates": [
          15.334143772479898,
          0.007076612690926341
        ]
      }
    }
  ]
}